OBJECT_NAME,OBJECT_ID,EPOCH,MEAN_MOTION,ECCENTRICITY,INCLINATION,RA_OF_ASC_NODE,ARG_OF_PERICENTER,MEAN_ANOMALY,EPHEMERIS_TYPE,CLASSIFICATION_TYPE,NORAD_CAT_ID,ELEMENT_SET_NO,REV_AT_EPOCH,BSTAR,MEAN_MOTION_DOT,MEAN_MOTION_DDOT
DMSP 5D-3 F16 (USA 172),2003-048A,2026-06-09T04:14:04.993152,14.14482499,.0007366,98.9892,183.9516,161.1999,285.7375,0,U,28054,999,16835,.26386E-4,.5E-7,0
METEOSAT-9 (MSG-2),2005-049B,2026-06-08T18:44:00.008160,1.00268863,.00017,9.3415,54.2486,350.9221,178.6781,0,U,28912,999,691,0,.137E-5,0
DMSP 5D-3 F17 (USA 191),2006-050A,2026-06-09T04:18:12.798720,14.14992014,.0011316,98.7377,166.9132,79.9678,280.2772,0,U,29522,999,1129,.39822E-4,.34E-6,0
FENGYUN 3A,2008-026A,2026-06-08T19:13:04.431936,14.19569456,.000923,98.6881,100.7909,145.8494,214.3278,0,U,32958,999,93421,.57556E-4,.78E-6,0
GOES 14,2009-033A,2026-06-08T20:55:27.053760,1.00113863,.0001938,1.6675,83.1445,5.1308,269.4392,0,U,35491,999,650,0,-.241E-5,0
DMSP 5D-3 F18 (USA 210),2009-057A,2026-06-09T03:36:13.652064,14.14892189,.0009867,98.9034,140.9369,275.2032,84.8015,0,U,35951,999,85845,.14528E-3,.236E-5,0
EWS-G2 (GOES 15),2010-008A,2026-06-09T03:22:25.331808,1.00275828,.0005439,1.2545,82.9961,38.4522,250.2902,0,U,36411,999,5955,0,.35E-6,0
COMS 1,2010-032A,2026-06-03T23:47:39.107040,1.00270643,.0001016,4.7750,75.5286,4.5847,297.3769,0,U,36744,999,5095,0,-.334E-5,0
FENGYUN 3B,2010-059A,2026-06-09T05:52:44.059296,14.14840189,.0021469,98.9623,206.2256,206.9006,230.0460,0,U,37214,999,80630,.4431E-4,.4E-6,0
SUOMI NPP,2011-061A,2026-06-09T03:56:23.059392,14.19515711,.0001974,98.7953,101.0951,24.6640,335.4630,0,U,37849,999,75730,.5058E-4,.62E-6,0
METEOSAT-10 (MSG-3),2012-035B,2026-06-09T01:21:36.205920,1.00275825,.0001579,4.6514,61.0532,334.1660,242.8443,0,U,38552,999,5077,0,.11E-6,0
METOP-B,2012-049A,2026-06-09T03:57:36.736992,14.21430470,.0002699,98.6507,211.8240,38.3543,321.7826,0,U,38771,999,71212,.54073E-4,.75E-6,0
INSAT-3D,2013-038B,2026-06-08T22:33:15.354720,1.00273615,.0000772,1.9037,82.6473,318.4923,324.0091,0,U,39216,999,4699,0,-.322E-5,0
FENGYUN 3C,2013-052A,2026-06-09T04:46:38.053056,14.15753188,.0015617,98.4975,134.4409,49.4224,310.8308,0,U,39260,999,65743,.61426E-4,.79E-6,0
METEOR-M 2,2014-037A,2026-06-09T04:35:47.606208,14.21459992,.0006985,98.5114,136.2133,63.6506,296.5388,0,U,40069,999,61818,.15298E-3,.293E-5,0
HIMAWARI-8,2014-060A,2026-06-08T20:10:00.000192,1.00270961,.0000818,0.0136,319.3355,138.5674,242.4936,0,U,40267,999,4267,0,-.259E-5,0
FENGYUN 2G,2014-090A,2026-06-08T20:52:19.341984,1.00276806,.0003416,5.6171,72.9157,153.8778,83.1535,0,U,40367,999,4191,0,-.287E-5,0
METEOSAT-11 (MSG-4),2015-034A,2026-06-09T03:06:56.816064,1.00277816,.0001707,3.1821,71.1557,6.3993,236.1386,0,U,40732,999,713,0,.8E-6,0
ELEKTRO-L 2,2015-074A,2026-06-08T23:34:46.583040,1.00271818,.000097,6.6726,70.6232,284.4222,241.5278,0,U,41105,999,3842,0,-.102E-5,0
SENTINEL-3A,2016-011A,2026-06-09T03:38:20.817312,14.26737751,.0001343,98.6249,227.6504,104.5625,255.5704,0,U,41335,999,53691,.50502E-4,.79E-6,0
INSAT-3DR,2016-054A,2026-06-09T03:25:02.582400,1.00270533,.0010442,0.0844,87.5464,186.6911,108.5347,0,U,41752,999,3573,0,-.6E-6,0
HIMAWARI-9,2016-064A,2026-06-08T22:36:22.555872,1.00272504,.000086,0.0279,160.6143,319.9078,256.6731,0,U,41836,999,3512,0,-.258E-5,0
GOES 16,2016-071A,2026-06-09T02:34:24.798144,1.00270580,.0000412,0.3190,85.6070,313.1860,152.6282,0,U,41866,999,3502,0,-.74E-6,0
FENGYUN 4A,2016-077A,2026-06-08T22:31:38.011296,1.00273733,.0008284,2.3009,80.3737,151.4317,127.2017,0,U,41882,999,3484,0,-.34E-5,0
CYGFM05,2016-078A,2026-06-08T20:11:45.683808,15.56298875,.0006902,34.9576,315.8393,64.4552,295.6886,0,U,41884,999,52745,.33038E-3,.24058E-3,0
CYGFM04,2016-078B,2026-06-09T00:42:43.691040,15.61053774,.0005936,34.9328,282.6908,114.0364,246.0983,0,U,41885,999,52772,.29794E-3,.2599E-3,0
CYGFM02,2016-078C,2026-06-08T17:26:21.954336,15.63951377,.0006918,34.9407,279.4912,112.4011,247.7448,0,U,41886,999,52784,.35915E-3,.35163E-3,0
CYGFM01,2016-078D,2026-06-08T20:00:42.430752,15.56961058,.0006778,34.9406,317.0150,57.2874,302.8503,0,U,41887,999,52740,.32211E-3,.24044E-3,0
CYGFM08,2016-078E,2026-06-09T01:31:30.115200,15.59587692,.0007787,34.9435,295.2833,95.2901,264.8713,0,U,41888,999,52770,.30283E-3,.24978E-3,0
CYGFM07,2016-078G,2026-06-08T18:24:43.907040,15.59678638,.0006371,34.9448,285.6049,110.5312,249.6097,0,U,41890,999,52768,.35491E-3,.29388E-3,0
CYGFM03,2016-078H,2026-06-09T01:23:45.786048,15.59683603,.000586,34.9404,285.6073,100.3931,259.7455,0,U,41891,999,52770,.29948E-3,.24776E-3,0
